      2.10          N: GNSS NAV DATA                        RINEX VERSION / TYPE
fic2rin                                 06/12/2023 00:17:23 PGM / RUN BY / DATE
                                                            END OF HEADER
13 23  6 11  1 59 44.0  .532329082489D-03  .511590769747D-11  .000000000000D+00
     .100000000000D+01 -.780937500000D+02  .448840124564D-08  .215317245564D+01
    -.411085784435D-05  .702423602343D-02  .916980206966D-05  .515367223740D+04
     .718400000000D+04 -.763684511185D-07 -.204799157011D+01 -.160187482834D-06
     .969611332935D+00  .207906250000D+03  .908991846428D+00 -.795533137148D-08
    -.201079804352D-09  .100000000000D+01  .226600000000D+04  .000000000000D+00
     .240000000000D+01  .000000000000D+00 -.111758708954D-07  .100000000000D+01
     .420000000000D+04  .400000000000D+01
4  23  6 11  3 29 36.0  .650784932077D-04  .102318153949D-10  .000000000000D+00
     .840000000000D+02 -.661875000000D+02  .471626788006D-08  .285699505340D+01
    -.337511301041D-05  .240732356906D-02  .835023820400D-05  .515366120148D+04
     .125760000000D+05 -.707805156708D-07 -.215174479388D+01  .372529029846D-08
     .962685123882D+00  .222125000000D+03 -.298106749393D+01 -.805319259065D-08
    -.108933108930D-09  .100000000000D+01  .226600000000D+04  .000000000000D+00
     .240000000000D+01  .000000000000D+00 -.465661287308D-08  .840000000000D+02
     .540000000000D+04  .400000000000D+01
5  23  6 11  1 59 44.0 -.130636151880D-03 -.147792889038D-11  .000000000000D+00
     .140000000000D+02  .278125000000D+01  .473876881731D-08  .293380425199D+01
    -.279396772385D-07  .598955352325D-02  .519491732121D-05  .515368010902D+04
     .718400000000D+04 -.372529029846D-08  .300418882786D+01 -.143423676491D-06
     .966526050410D+00  .284468750000D+03  .115852109710D+01 -.821962809479D-08
     .300369654459D-09  .100000000000D+01  .226600000000D+04  .000000000000D+00
     .240000000000D+01  .000000000000D+00 -.111758708954D-07  .140000000000D+02
     .618000000000D+04  .400000000000D+01
5  23  6 11  3 59 44.0 -.130646862090D-03 -.147792889038D-11  .000000000000D+00
     .150000000000D+02  .218750000000D+01  .465483674978D-08 -.229923789308D+01
    -.100582838058D-06  .599014805630D-02  .450573861599D-05  .515367891884D+04
     .143840000000D+05  .670552253723D-07  .300412898134D+01 -.242143869400D-07
     .966528592961D+00  .288875000000D+03  .115855691811D+01 -.824141471657D-08
     .406088343781D-09  .100000000000D+01  .226600000000D+04  .000000000000D+00
     .240000000000D+01  .000000000000D+00 -.111758708954D-07  .150000000000D+02
     .720000000000D+04  .400000000000D+01
13 23  6 11  3 59 44.0  .532365869731D-03  .511590769747D-11  .000000000000D+00
     .700000000000D+01 -.743437500000D+02  .447232914760D-08 -.307973868220D+01
    -.395998358727D-05  .702424021438D-02  .950135290623D-05  .515367168999D+04
     .143840000000D+05  .540167093277D-07 -.204804850688D+01 -.150874257088D-06
     .969610117250D+00  .199843750000D+03  .908900081965D+00 -.790497213096D-08
    -.188579283656D-09  .100000000000D+01  .226600000000D+04  .000000000000D+00
     .240000000000D+01  .000000000000D+00 -.111758708954D-07  .700000000000D+01
     .720000000000D+04  .400000000000D+01
1  23  6 11  4  0  0.0  .179152935743D-03 -.238742359215D-11  .000000000000D+00
     .850000000000D+02  .205937500000D+02  .365372362083D-08  .138861084218D+01
     .102072954178D-05  .129201224772D-01  .922009348869D-05  .515364796257D+04
     .144000000000D+05 -.245869159698D-06  .202061436464D+01 -.186264514923D-08
     .989922708449D+00  .218468750000D+03  .973320589521D+00 -.787639951223D-08
     .113219001740D-09  .100000000000D+01  .226600000000D+04  .000000000000D+00
     .485000000000D+01  .000000000000D+00  .465661287308D-08  .850000000000D+02
     .720000000000D+04  .400000000000D+01
3  23  6 11  4  0  0.0 -.274565070868D-03  .130739863380D-10  .000000000000D+00
     .760000000000D+02  .781250000000D+00  .438125392538D-08  .226702652310D+00
    -.165775418282D-06  .490884180181D-02  .508129596710D-05  .515365295982D+04
     .144000000000D+05 -.111758708954D-07  .305087641007D+01  .279396772385D-07
     .979508184402D+00  .294968750000D+03  .103691007915D+01 -.820534178542D-08
     .256796410887D-09  .100000000000D+01  .226600000000D+04  .000000000000D+00
     .240000000000D+01  .000000000000D+00  .186264514923D-08  .760000000000D+02
     .720000000000D+04  .400000000000D+01
12 23  6 11  4  0  0.0 -.387104228139D-03 -.466116034659D-11  .000000000000D+00
     .170000000000D+02  .417187500000D+02  .473091134716D-08  .125179179015D-01
     .217929482460D-05  .876386766322D-02  .606477260590D-05  .515358791542D+04
     .144000000000D+05 -.158324837685D-06 -.219150233858D-01  .689178705215D-07
     .965606180688D+00  .265406250000D+03  .137885462834D+01 -.836892002768D-08
    -.721458623076D-10  .100000000000D+01  .226600000000D+04  .000000000000D+00
     .240000000000D+01  .000000000000D+00 -.125728547573D-07  .170000000000D+02
     .720000000000D+04  .400000000000D+01
8  23  6 11  4  0  0.0 -.126803759485D-03 -.181898940355D-11  .000000000000D+00
     .180000000000D+02 -.113125000000D+02  .443911347832D-08 -.270325353997D+01
    -.605359673500D-06  .846222892869D-02  .698305666447D-05  .515371016312D+04
     .144000000000D+05 -.100582838058D-06  .927874262579D+00 -.633299350739D-07
     .958458302973D+00  .244781250000D+03  .269338925745D+00 -.809676583423D-08
    -.288940606965D-09  .100000000000D+01  .226600000000D+04  .000000000000D+00
     .240000000000D+01  .000000000000D+00  .512227416039D-08  .180000000000D+02
     .720000000000D+04  .400000000000D+01
7  23  6 11  4  0  0.0  .155457295477D-03 -.100044417195D-10  .000000000000D+00
     .210000000000D+02  .252187500000D+02  .495734935064D-08  .745457013700D+00
     .160373747349D-05  .174035977107D-01  .106673687696D-04  .515374571991D+04
     .144000000000D+05 -.214204192162D-06 -.113647487191D+01  .122934579849D-06
     .950103681689D+00  .173500000000D+03 -.219009609980D+01 -.840820737844D-08
    -.109290266664D-09  .100000000000D+01  .226600000000D+04  .000000000000D+00
     .240000000000D+01  .000000000000D+00 -.111758708954D-07  .210000000000D+02
     .720000000000D+04  .400000000000D+01
4  23  6 11  4  0  0.0  .650971196592D-04  .102318153949D-10  .000000000000D+00
     .850000000000D+02 -.660937500000D+02  .469519557374D-08  .312301506422D+01
    -.336952507496D-05  .240686896723D-02  .819377601147D-05  .515366203308D+04
     .144000000000D+05 -.670552253723D-07 -.215175948012D+01  .558793544769D-08
     .962684933703D+00  .225843750000D+03 -.298103946149D+01 -.805104964425D-08
    -.108933108930D-09  .100000000000D+01  .226600000000D+04  .000000000000D+00
     .240000000000D+01  .000000000000D+00 -.465661287308D-08  .850000000000D+02
     .720000000000D+04  .400000000000D+01
9  23  6 11  4  0  0.0 -.138546340168D-03  .875388650456D-11  .000000000000D+00
     .450000000000D+02 -.660625000000D+02  .491913347308D-08 -.225763489624D+01
    -.333227217197D-05  .239393650554D-02  .797770917416D-05  .515359914589D+04
     .144000000000D+05 -.279396772385D-07 -.220857286340D+01  .633299350739D-07
     .956023558173D+00  .224687500000D+03  .194962690560D+01 -.816998316974D-08
    -.860750139413D-10  .100000000000D+01  .226600000000D+04  .000000000000D+00
     .240000000000D+01  .000000000000D+00  .931322574615D-09  .450000000000D+02
     .720000000000D+04  .400000000000D+01
24 23  6 11  4  0  0.0 -.220689456910D-03 -.131876731757D-10  .000000000000D+00
     .900000000000D+01 -.875000000000D+00  .518450166959D-08  .170064994454D+01
    -.670552253723D-07  .139226089232D-01  .117626041174D-04  .515365534019D+04
     .144000000000D+05 -.370666384697D-06 -.122742641409D+01 -.223517417908D-07
     .933652411559D+00  .141125000000D+03  .896041352428D+00 -.834963351004D-08
     .664313385605D-10  .100000000000D+01  .226600000000D+04  .000000000000D+00
     .240000000000D+01  .000000000000D+00  .279396772385D-08  .900000000000D+01
     .720000000000D+04  .400000000000D+01
19 23  6 11  4  0  0.0  .328972004354D-03  .511590769747D-11  .000000000000D+00
     .250000000000D+02 -.137812500000D+02  .410338520818D-08 -.578872361043D+00
    -.704079866409D-06  .945349026006D-02  .824779272079D-05  .515362344360D+04
     .144000000000D+05 -.163912773132D-06  .106170003938D+01 -.156462192535D-06
     .973043186606D+00  .231375000000D+03  .232038699693D+01 -.799247577584D-08
    -.305369862738D-09  .100000000000D+01  .226600000000D+04  .000000000000D+00
     .240000000000D+01  .000000000000D+00 -.153668224812D-07  .250000000000D+02
     .720000000000D+04  .400000000000D+01
17 23  6 11  4  0  0.0  .717972405255D-03  .125055521494D-11  .000000000000D+00
     .250000000000D+02 -.728125000000D+01  .405266880992D-08 -.276513449488D+01
    -.342726707458D-06  .135051575489D-01  .778026878834D-05  .515377577782D+04
     .144000000000D+05  .154599547386D-06  .101716503580D+01  .558793544769D-07
     .973998597923D+00  .236937500000D+03 -.140588949488D+01 -.765710466343D-08
    -.359657838335D-09  .100000000000D+01  .226600000000D+04  .000000000000D+00
     .240000000000D+01  .000000000000D+00 -.111758708954D-07  .250000000000D+02
     .720000000000D+04  .400000000000D+01
10 23  6 11  4  0  0.0 -.406568869948D-04 -.159161572810D-11  .000000000000D+00
     .101000000000D+03  .340625000000D+01  .439089718421D-08 -.701749413171D+00
     .379979610443D-06  .852414523251D-02  .533089041710D-05  .515368553734D+04
     .144000000000D+05  .316649675369D-07  .304823377876D+01  .167638063431D-06
     .979239281041D+00  .285718750000D+03 -.243398801028D+01 -.821034199370D-08
     .353586156854D-09  .100000000000D+01  .226600000000D+04  .000000000000D+00
     .340000000000D+01  .000000000000D+00  .232830643654D-08  .101000000000D+03
     .720000000000D+04  .400000000000D+01
